start=new Date('2022-02-05T00:00:00.000Z').valueOf();
sats=[{"MEAN_ANOMALY":"266.6956","OBJECT_TYPE":"PAYLOAD","CLASSIFICATION_TYPE":"U","EPOCH":"2022-02-04T14:05:44.830752","TIME_SYSTEM":"UTC","ARG_OF_PERICENTER":"93.4179","MEAN_MOTION_DDOT":"0.0000000000000","ECCENTRICITY":"0.00012700","BSTAR":"0.00040403000000","EPHEMERIS_TYPE":"0","RCS_SIZE":"LARGE","ELEMENT_SET_NO":"999","OBJECT_NAME":"STARLINK-1086","CENTER_NAME":"EARTH","INCLINATION":"53.0524","COUNTRY_CODE":"US","REF_FRAME":"TEME","OBJECT_ID":"2020-001BC","TLE_LINE1":"1 44964U 20001BC  22035.58732443  .00005744  00000-0  40403-3 0  9992","PERIOD":"95.591","LAUNCH_DATE":"2020-01-07","PERIAPSIS":"546.297","SITE":"AFETR","TLE_LINE2":"2 44964  53.0524 173.9020 0001270  93.4179 266.6956 15.06412137115213","REV_AT_EPOCH":"11521","RA_OF_ASC_NODE":"173.9020","APOAPSIS":"548.056","MEAN_MOTION":"15.06412137","FILE":"3291889","DECAY_DATE":null,"GP_ID":"195297373","MEAN_ELEMENT_THEORY":"SGP4","MEAN_MOTION_DOT":"0.00005744","NORAD_CAT_ID":"44964","SEMIMAJOR_AXIS":"6925.311"},{"TLE_LINE1":"1 44966U 20001BE  22035.74213206  .00001992  00000-0  15258-3 0  9994","LAUNCH_DATE":"2020-01-07","PERIOD":"95.592","PERIAPSIS":"546.230","INCLINATION":"53.0540","CENTER_NAME":"EARTH","COUNTRY_CODE":"US","OBJECT_ID":"2020-001BE","REF_FRAME":"TEME","DECAY_DATE":null,"GP_ID":"195308720","MEAN_ELEMENT_THEORY":"SGP4","NORAD_CAT_ID":"44966","SEMIMAJOR_AXIS":"6925.342","MEAN_MOTION_DOT":"0.00001992","SITE":"AFETR","RA_OF_ASC_NODE":"173.2106","TLE_LINE2":"2 44966  53.0540 173.2106 0001410  82.3999 277.7150 15.06402238115236","REV_AT_EPOCH":"11523","MEAN_MOTION":"15.06402238","FILE":"3292123","APOAPSIS":"548.183","ARG_OF_PERICENTER":"82.3999","TIME_SYSTEM":"UTC","MEAN_ANOMALY":"277.7150","EPOCH":"2022-02-04T17:48:40.209984","OBJECT_TYPE":"PAYLOAD","CLASSIFICATION_TYPE":"U","BSTAR":"0.00015258000000","EPHEMERIS_TYPE":"0","OBJECT_NAME":"STARLINK-1088","RCS_SIZE":"LARGE","ELEMENT_SET_NO":"999","MEAN_MOTION_DDOT":"0.0000000000000","ECCENTRICITY":"0.00014100"},{"SITE":"AFETR","FILE":"3291889","MEAN_MOTION":"15.06414272","APOAPSIS":"548.344","RA_OF_ASC_NODE":"174.0144","REV_AT_EPOCH":"11521","TLE_LINE2":"2 44967  53.0550 174.0144 0001696  85.1023 275.0160 15.06414272115215","DECAY_DATE":null,"NORAD_CAT_ID":"44967","SEMIMAJOR_AXIS":"6925.305","MEAN_MOTION_DOT":"0.00002615","GP_ID":"195297869","MEAN_ELEMENT_THEORY":"SGP4","INCLINATION":"53.0550","CENTER_NAME":"EARTH","OBJECT_ID":"2020-001BF","REF_FRAME":"TEME","COUNTRY_CODE":"US","TLE_LINE1":"1 44967U 20001BF  22035.56520486  .00002615  00000-0  19429-3 0  9993","PERIAPSIS":"545.995","LAUNCH_DATE":"2020-01-07","PERIOD":"95.591","MEAN_MOTION_DDOT":"0.0000000000000","ECCENTRICITY":"0.00016960","EPHEMERIS_TYPE":"0","BSTAR":"0.00019429000000","OBJECT_NAME":"STARLINK-1089","RCS_SIZE":"LARGE","ELEMENT_SET_NO":"999","MEAN_ANOMALY":"275.0160","OBJECT_TYPE":"PAYLOAD","EPOCH":"2022-02-04T13:33:53.699904","CLASSIFICATION_TYPE":"U","TIME_SYSTEM":"UTC","ARG_OF_PERICENTER":"85.1023"},{"SEMIMAJOR_AXIS":"6925.365","NORAD_CAT_ID":"44968","MEAN_MOTION_DOT":"-0.00000518","MEAN_ELEMENT_THEORY":"SGP4","GP_ID":"195308724","DECAY_DATE":null,"FILE":"3292123","MEAN_MOTION":"15.06394490","APOAPSIS":"548.339","RA_OF_ASC_NODE":"173.1288","TLE_LINE2":"2 44968  53.0543 173.1288 0001601  80.5669 279.5501 15.06394490115248","REV_AT_EPOCH":"11524","SITE":"AFETR","PERIAPSIS":"546.122","LAUNCH_DATE":"2020-01-07","PERIOD":"95.592","TLE_LINE1":"1 44968U 20001BG  22035.76057757 -.00000518  00000-0 -15858-4 0  9997","OBJECT_ID":"2020-001BG","REF_FRAME":"TEME","COUNTRY_CODE":"US","INCLINATION":"53.0543","CENTER_NAME":"EARTH","RCS_SIZE":"LARGE","OBJECT_NAME":"STARLINK-1090","ELEMENT_SET_NO":"999","EPHEMERIS_TYPE":"0","BSTAR":"-0.00001585800000","ECCENTRICITY":"0.00016010","MEAN_MOTION_DDOT":"0.0000000000000","ARG_OF_PERICENTER":"80.5669","TIME_SYSTEM":"UTC","OBJECT_TYPE":"PAYLOAD","CLASSIFICATION_TYPE":"U","EPOCH":"2022-02-04T18:15:13.902048","MEAN_ANOMALY":"279.5501"},{"MEAN_MOTION_DDOT":"0.0000000000000","ECCENTRICITY":"0.00016220","EPHEMERIS_TYPE":"0","BSTAR":"0.00011116000000","RCS_SIZE":"LARGE","OBJECT_NAME":"STARLINK-1092","ELEMENT_SET_NO":"999","MEAN_ANOMALY":"274.2561","OBJECT_TYPE":"PAYLOAD","CLASSIFICATION_TYPE":"U","EPOCH":"2022-02-04T13:17:58.331904","ARG_OF_PERICENTER":"85.8614","TIME_SYSTEM":"UTC","SITE":"AFETR","FILE":"3291889","MEAN_MOTION":"15.06407387","APOAPSIS":"548.314","RA_OF_ASC_NODE":"174.0540","REV_AT_EPOCH":"11520","TLE_LINE2":"2 44969  53.0541 174.0540 0001622  85.8614 274.2561 15.06407387115203","DECAY_DATE":null,"NORAD_CAT_ID":"44969","SEMIMAJOR_AXIS":"6925.326","MEAN_MOTION_DOT":"0.00001375","GP_ID":"195296874","MEAN_ELEMENT_THEORY":"SGP4","INCLINATION":"53.0541","CENTER_NAME":"EARTH","OBJECT_ID":"2020-001BH","REF_FRAME":"TEME","COUNTRY_CODE":"US","TLE_LINE1":"1 44969U 20001BH  22035.55414736  .00001375  00000-0  11116-3 0  9991","PERIAPSIS":"546.068","LAUNCH_DATE":"2020-01-07","PERIOD":"95.592"},{"ECCENTRICITY":"0.00014520","MEAN_MOTION_DDOT":"0.0000000000000","ELEMENT_SET_NO":"999","RCS_SIZE":"LARGE","OBJECT_NAME":"STARLINK-1093","EPHEMERIS_TYPE":"0","BSTAR":"0.00039952000000","OBJECT_TYPE":"PAYLOAD","CLASSIFICATION_TYPE":"U","EPOCH":"2022-02-04T19:08:18.625056","MEAN_ANOMALY":"265.5010","ARG_OF_PERICENTER":"94.6145","TIME_SYSTEM":"UTC","APOAPSIS":"548.138","MEAN_MOTION":"15.06426301","FILE":"3292123","TLE_LINE2":"2 44970  53.0526 172.9663 0001452  94.6145 265.5010 15.06426301115231","REV_AT_EPOCH":"11523","RA_OF_ASC_NODE":"172.9663","SITE":"AFETR","MEAN_MOTION_DOT":"0.00005678","NORAD_CAT_ID":"44970","SEMIMAJOR_AXIS":"6925.268","MEAN_ELEMENT_THEORY":"SGP4","GP_ID":"195308727","DECAY_DATE":null,"REF_FRAME":"TEME","OBJECT_ID":"2020-001BJ","COUNTRY_CODE":"US","CENTER_NAME":"EARTH","INCLINATION":"53.0526","PERIAPSIS":"546.127","PERIOD":"95.590","LAUNCH_DATE":"2020-01-07","TLE_LINE1":"1 44970U 20001BJ  22035.79743779  .00005678  00000-0  39952-3 0  9999"},{"MEAN_ANOMALY":"269.7541","OBJECT_TYPE":"PAYLOAD","EPOCH":"2022-02-04T16:50:16.868832","CLASSIFICATION_TYPE":"U","ARG_OF_PERICENTER":"90.3637","TIME_SYSTEM":"UTC","MEAN_MOTION_DDOT":"0.0000000000000","ECCENTRICITY":"0.00016480","BSTAR":"0.00011234000000","EPHEMERIS_TYPE":"0","ELEMENT_SET_NO":"999","RCS_SIZE":"LARGE","OBJECT_NAME":"STARLINK-1107","INCLINATION":"53.0554","CENTER_NAME":"EARTH","COUNTRY_CODE":"US","OBJECT_ID":"2020-001BL","REF_FRAME":"TEME","TLE_LINE1":"1 44972U 20001BL  22035.70158413  .00001392  00000-0  11234-3 0  9999","LAUNCH_DATE":"2020-01-07","PERIOD":"95.592","PERIAPSIS":"546.049","SITE":"AFETR","RA_OF_ASC_NODE":"173.3807","REV_AT_EPOCH":"11523","TLE_LINE2":"2 44972  53.0554 173.3807 0001648  90.3637 269.7541 15.06407602115233","MEAN_MOTION":"15.06407602","FILE":"3292126","APOAPSIS":"548.332","DECAY_DATE":null,"GP_ID":"195309071","MEAN_ELEMENT_THEORY":"SGP4","NORAD_CAT_ID":"44972","SEMIMAJOR_AXIS":"6925.325","MEAN_MOTION_DOT":"0.00001392"},{"ARG_OF_PERICENTER":"82.6984","TIME_SYSTEM":"UTC","OBJECT_TYPE":"PAYLOAD","EPOCH":"2022-02-04T13:07:21.471456","CLASSIFICATION_TYPE":"U","MEAN_ANOMALY":"277.4180","ELEMENT_SET_NO":"999","RCS_SIZE":"LARGE","OBJECT_NAME":"STARLINK-1115","EPHEMERIS_TYPE":"0","BSTAR":"0.00017227000000","ECCENTRICITY":"0.00015400","MEAN_MOTION_DDOT":"0.0000000000000","PERIAPSIS":"546.157","PERIOD":"95.592","LAUNCH_DATE":"2020-01-07","TLE_LINE1":"1 44973U 20001BM  22035.54677629  .00002285  00000-0  17227-3 0  9997","REF_FRAME":"TEME","OBJECT_ID":"2020-001BM","COUNTRY_CODE":"US","CENTER_NAME":"EARTH","INCLINATION":"53.0542","MEAN_MOTION_DOT":"0.00002285","NORAD_CAT_ID":"44973","SEMIMAJOR_AXIS":"6925.358","MEAN_ELEMENT_THEORY":"SGP4","GP_ID":"195297125","DECAY_DATE":null,"APOAPSIS":"548.290","MEAN_MOTION":"15.06396873","FILE":"3291889","TLE_LINE2":"2 44973  53.0542 174.0969 0001540  82.6984 277.4180 15.06396873115207","REV_AT_EPOCH":"11520","RA_OF_ASC_NODE":"174.0969","SITE":"AFETR"},{"TLE_LINE1":"1 45044U 20006A   22035.52097150  .00001669  00000-0  13090-3 0  9994","LAUNCH_DATE":"2020-01-29","PERIOD":"95.592","PERIAPSIS":"546.240","INCLINATION":"53.0546","CENTER_NAME":"EARTH","COUNTRY_CODE":"US","OBJECT_ID":"2020-006A","REF_FRAME":"TEME","DECAY_DATE":null,"MEAN_ELEMENT_THEORY":"SGP4","GP_ID":"195296632","SEMIMAJOR_AXIS":"6925.326","NORAD_CAT_ID":"45044","MEAN_MOTION_DOT":"0.00001669","SITE":"AFETR","RA_OF_ASC_NODE":"134.2098","TLE_LINE2":"2 45044  53.0546 134.2098 0001374  77.5292 282.5850 15.06407269111537","REV_AT_EPOCH":"11153","MEAN_MOTION":"15.06407269","FILE":"3291889","APOAPSIS":"548.143","ARG_OF_PERICENTER":"77.5292","TIME_SYSTEM":"UTC","MEAN_ANOMALY":"282.5850","OBJECT_TYPE":"PAYLOAD","EPOCH":"2022-02-04T12:30:11.937600","CLASSIFICATION_TYPE":"U","BSTAR":"0.00013090000000","EPHEMERIS_TYPE":"0","RCS_SIZE":"LARGE","ELEMENT_SET_NO":"999","OBJECT_NAME":"STARLINK-1132","MEAN_MOTION_DDOT":"0.0000000000000","ECCENTRICITY":"0.00013740"},{"GP_ID":"195296881","MEAN_ELEMENT_THEORY":"SGP4","NORAD_CAT_ID":"45045","SEMIMAJOR_AXIS":"6925.299","MEAN_MOTION_DOT":"0.00005642","DECAY_DATE":null,"RA_OF_ASC_NODE":"153.9593","TLE_LINE2":"2 45045  53.0533 153.9593 0001537  84.6013 275.5151 15.06416144111261","REV_AT_EPOCH":"11126","MEAN_MOTION":"15.06416144","FILE":"3291889","APOAPSIS":"548.228","SITE":"AFETR","LAUNCH_DATE":"2020-01-29","PERIOD":"95.591","PERIAPSIS":"546.100","TLE_LINE1":"1 45045U 20006B   22035.57442497  .00005642  00000-0  39716-3 0  9996","COUNTRY_CODE":"US","OBJECT_ID":"2020-006B","REF_FRAME":"TEME","INCLINATION":"53.0533","CENTER_NAME":"EARTH","ELEMENT_SET_NO":"999","RCS_SIZE":"LARGE","OBJECT_NAME":"STARLINK-1120","BSTAR":"0.00039716000000","EPHEMERIS_TYPE":"0","ECCENTRICITY":"0.00015370","MEAN_MOTION_DDOT":"0.0000000000000","TIME_SYSTEM":"UTC","ARG_OF_PERICENTER":"84.6013","OBJECT_TYPE":"PAYLOAD","CLASSIFICATION_TYPE":"U","EPOCH":"2022-02-04T13:47:10.317408","MEAN_ANOMALY":"275.5151"}];
